[{"OBJECT_NAME":"STARLINK-3582","OBJECT_ID":"2022-022X","EPOCH":"2026-03-09T22:56:15.036576","MEAN_MOTION":15.17112073,"ECCENTRICITY":0.00019498,"INCLINATION":53.2143,"RA_OF_ASC_NODE":3.953,"ARG_OF_PERICENTER":143.0365,"MEAN_ANOMALY":217.0766,"EPHEMERIS_TYPE":0,"CLASSIFICATION_TYPE":"U","NORAD_CAT_ID":51873,"ELEMENT_SET_NO":999,"REV_AT_EPOCH":22321,"BSTAR":0.0018716326,"MEAN_MOTION_DOT":0.00037432,"MEAN_MOTION_DDOT":0},{"OBJECT_NAME":"NOAA 16 DEB","OBJECT_ID":"2000-055RD","EPOCH":"2026-03-08T14:49:38.721792","MEAN_MOTION":15.14089507,"ECCENTRICITY":0.00084032,"INCLINATION":98.9038,"RA_OF_ASC_NODE":208.7699,"ARG_OF_PERICENTER":346.4163,"MEAN_ANOMALY":13.6837,"EPHEMERIS_TYPE":0,"CLASSIFICATION_TYPE":"U","NORAD_CAT_ID":42361,"ELEMENT_SET_NO":999,"REV_AT_EPOCH":52359,"BSTAR":0.022314151,"MEAN_MOTION_DOT":0.0043103,"MEAN_MOTION_DDOT":0}]
